{
  "norad_id": 63068,
  "name": "STARLINK-33627",
  "history": [
    {
      "epoch": "2026-03-28T05:27:52.595712Z",
      "apogee_km": 483.9058334085221,
      "perigee_km": 482.0917491053142,
      "latitude_deg": -1.983595650473841e-06,
      "longitude_deg": 134.87308986556107,
      "height_km": 482.874168444859,
      "semi_major_axis_km": 6861.135791256918,
      "eccentricity": 0.0001322,
      "inclination_deg": 42.9998,
      "raan_deg": 42.4934,
      "arg_perigee_deg": 263.7476,
      "mean_anomaly_deg": 96.3225,
      "mean_motion_rev_day": 15.275968
    },
    {
      "epoch": "2026-03-29T05:00:12.983040Z",
      "apogee_km": 483.84250043854536,
      "perigee_km": 482.07233807837565,
      "latitude_deg": -9.359629337765198e-06,
      "longitude_deg": 135.27952237025414,
      "height_km": 482.7915040235423,
      "semi_major_axis_km": 6861.09441925846,
      "eccentricity": 0.000129,
      "inclination_deg": 43.002,
      "raan_deg": 36.9515,
      "arg_perigee_deg": 266.2904,
      "mean_anomaly_deg": 93.78,
      "mean_motion_rev_day": 15.27610617
    },
    {
      "epoch": "2026-03-30T04:32:33.770400Z",
      "apogee_km": 484.0513989566107,
      "perigee_km": 481.9089465082543,
      "latitude_deg": 1.2729913336052148e-07,
      "longitude_deg": 135.6864023094135,
      "height_km": 483.07844018884697,
      "semi_major_axis_km": 6861.117172732433,
      "eccentricity": 0.00015613,
      "inclination_deg": 42.9994,
      "raan_deg": 31.4117,
      "arg_perigee_deg": 252.529,
      "mean_anomaly_deg": 107.5391,
      "mean_motion_rev_day": 15.27603018
    },
    {
      "epoch": "2026-03-30T12:23:20.825664Z",
      "apogee_km": 483.6278278995469,
      "perigee_km": 482.34575830756876,
      "latitude_deg": 9.603859585996759e-06,
      "longitude_deg": 15.821808822251608,
      "height_km": 483.04928765764953,
      "semi_major_axis_km": 6861.123793103558,
      "eccentricity": 9.343e-05,
      "inclination_deg": 42.9983,
      "raan_deg": 29.5654,
      "arg_perigee_deg": 243.4514,
      "mean_anomaly_deg": 116.6242,
      "mean_motion_rev_day": 15.27600807
    },
    {
      "epoch": "2026-03-30T20:14:08.265408Z",
      "apogee_km": 483.8565971486496,
      "perigee_km": 482.3428711003671,
      "latitude_deg": -1.4153439895231145e-05,
      "longitude_deg": -104.04132649405234,
      "height_km": 482.88772749941404,
      "semi_major_axis_km": 6861.236734124508,
      "eccentricity": 0.00011031,
      "inclination_deg": 43.0004,
      "raan_deg": 27.7222,
      "arg_perigee_deg": 269.1296,
      "mean_anomaly_deg": 90.9429,
      "mean_motion_rev_day": 15.27563089
    },
    {
      "epoch": "2026-03-31T11:55:42.418272Z",
      "apogee_km": 483.76485081325245,
      "perigee_km": 482.28476098848387,
      "latitude_deg": -1.0046696697566898e-05,
      "longitude_deg": 16.227093937613514,
      "height_km": 482.8371248367274,
      "semi_major_axis_km": 6861.161805900868,
      "eccentricity": 0.00010786,
      "inclination_deg": 42.9996,
      "raan_deg": 24.0274,
      "arg_perigee_deg": 267.2163,
      "mean_anomaly_deg": 92.8565,
      "mean_motion_rev_day": 15.27588112
    },
    {
      "epoch": "2026-04-01T11:28:03.904608Z",
      "apogee_km": 483.8729069031815,
      "perigee_km": 482.23308249444744,
      "latitude_deg": 4.015675942828428e-06,
      "longitude_deg": 16.63245905762286,
      "height_km": 482.62491194413684,
      "semi_major_axis_km": 6861.189994698814,
      "eccentricity": 0.0001195,
      "inclination_deg": 42.9996,
      "raan_deg": 18.489,
      "arg_perigee_deg": 284.4476,
      "mean_anomaly_deg": 75.6243,
      "mean_motion_rev_day": 15.27578698
    },
    {
      "epoch": "2026-04-02T18:51:10.567008Z",
      "apogee_km": 483.6472617492109,
      "perigee_km": 482.244856371939,
      "latitude_deg": -4.0246243213944244e-05,
      "longitude_deg": -102.81889065933804,
      "height_km": 482.7494977518996,
      "semi_major_axis_km": 6861.083059060575,
      "eccentricity": 0.0001022,
      "inclination_deg": 42.9999,
      "raan_deg": 11.1044,
      "arg_perigee_deg": 267.7872,
      "mean_anomaly_deg": 92.2862,
      "mean_motion_rev_day": 15.27614411
    },
    {
      "epoch": "2026-04-02T18:51:10.567872Z",
      "apogee_km": 483.64712452754975,
      "perigee_km": 482.24499359360016,
      "latitude_deg": -4.181738207465144e-05,
      "longitude_deg": -102.81889594473104,
      "height_km": 482.74949245441053,
      "semi_major_axis_km": 6861.083059060575,
      "eccentricity": 0.00010218,
      "inclination_deg": 42.9999,
      "raan_deg": 11.1044,
      "arg_perigee_deg": 267.7872,
      "mean_anomaly_deg": 92.2862,
      "mean_motion_rev_day": 15.27614411
    },
    {
      "epoch": "2026-04-03T18:23:31.648992Z",
      "apogee_km": 483.76872638659097,
      "perigee_km": 482.10148586480136,
      "latitude_deg": -7.837930284365234e-06,
      "longitude_deg": -102.41141776469243,
      "height_km": 482.404623011898,
      "semi_major_axis_km": 6861.072106125695,
      "eccentricity": 0.0001215,
      "inclination_deg": 43.0004,
      "raan_deg": 5.5664,
      "arg_perigee_deg": 291.6122,
      "mean_anomaly_deg": 68.46,
      "mean_motion_rev_day": 15.27618069
    },
    {
      "epoch": "2026-04-04T19:30:04.045248Z",
      "apogee_km": 483.9016733218232,
      "perigee_km": 482.13972802429,
      "latitude_deg": 1.2493057014797108e-05,
      "longitude_deg": -125.98657121827827,
      "height_km": 482.4715871917246,
      "semi_major_axis_km": 6861.157700673057,
      "eccentricity": 0.0001284,
      "inclination_deg": 42.9998,
      "raan_deg": 359.6574,
      "arg_perigee_deg": 291.6948,
      "mean_anomaly_deg": 68.3767,
      "mean_motion_rev_day": 15.27589483
    },
    {
      "epoch": "2026-04-05T03:20:50.468928Z",
      "apogee_km": 483.9632075759155,
      "perigee_km": 481.88526656965587,
      "latitude_deg": 9.19190687445629e-06,
      "longitude_deg": 114.15235966625313,
      "height_km": 482.3237078001097,
      "semi_major_axis_km": 6861.061237072785,
      "eccentricity": 0.00015143,
      "inclination_deg": 43.0004,
      "raan_deg": 357.812,
      "arg_perigee_deg": 291.2956,
      "mean_anomaly_deg": 68.7734,
      "mean_motion_rev_day": 15.27621699
    },
    {
      "epoch": "2026-04-05T17:28:14.587104Z",
      "apogee_km": 483.8121993545428,
      "perigee_km": 482.05988130004334,
      "latitude_deg": 2.4952142113784978e-05,
      "longitude_deg": -101.59924301707136,
      "height_km": 482.1266491509199,
      "semi_major_axis_km": 6861.073040327293,
      "eccentricity": 0.0001277,
      "inclination_deg": 42.9989,
      "raan_deg": 354.4909,
      "arg_perigee_deg": 311.9468,
      "mean_anomaly_deg": 48.1275,
      "mean_motion_rev_day": 15.27617757
    },
    {
      "epoch": "2026-04-06T02:53:10.024224Z",
      "apogee_km": 483.94554610506384,
      "perigee_km": 481.8881904921154,
      "latitude_deg": 4.2288581577925953e-05,
      "longitude_deg": 114.566009978612,
      "height_km": 482.4107637362484,
      "semi_major_axis_km": 6861.053868298589,
      "eccentricity": 0.00014993,
      "inclination_deg": 43.0005,
      "raan_deg": 352.2738,
      "arg_perigee_deg": 285.9644,
      "mean_anomaly_deg": 74.1043,
      "mean_motion_rev_day": 15.2762416
    },
    {
      "epoch": "2026-04-07T00:51:21.494880Z",
      "apogee_km": 484.1946051471714,
      "perigee_km": 481.73970208100764,
      "latitude_deg": 3.398062446758794e-05,
      "longitude_deg": 138.94513463064294,
      "height_km": 482.2690728203954,
      "semi_major_axis_km": 6861.104153614089,
      "eccentricity": 0.0001789,
      "inclination_deg": 43.0008,
      "raan_deg": 347.103,
      "arg_perigee_deg": 292.7736,
      "mean_anomaly_deg": 67.2927,
      "mean_motion_rev_day": 15.27607366
    },
    {
      "epoch": "2026-04-07T16:32:55.505184Z",
      "apogee_km": 484.004522926155,
      "perigee_km": 482.01890648811786,
      "latitude_deg": -3.5669435690929807e-05,
      "longitude_deg": -100.78323076364043,
      "height_km": 482.2376755379576,
      "semi_major_axis_km": 6861.148714707136,
      "eccentricity": 0.0001447,
      "inclination_deg": 43.0,
      "raan_deg": 343.4109,
      "arg_perigee_deg": 303.6863,
      "mean_anomaly_deg": 56.385,
      "mean_motion_rev_day": 15.27592484
    },
    {
      "epoch": "2026-04-08T00:23:42.182880Z",
      "apogee_km": 484.0721991990231,
      "perigee_km": 481.9305634646744,
      "latitude_deg": -1.7444456275178546e-05,
      "longitude_deg": 139.35406124684437,
      "height_km": 482.39947780337394,
      "semi_major_axis_km": 6861.138381331848,
      "eccentricity": 0.00015607,
      "inclination_deg": 43.0005,
      "raan_deg": 341.5649,
      "arg_perigee_deg": 290.7147,
      "mean_anomaly_deg": 69.3537,
      "mean_motion_rev_day": 15.27595935
    },
    {
      "epoch": "2026-04-09T01:30:12.326688Z",
      "apogee_km": 483.85740449531113,
      "perigee_km": 482.11330719245416,
      "latitude_deg": -6.5650380251129815e-06,
      "longitude_deg": 115.79140617955355,
      "height_km": 482.21444677204704,
      "semi_major_axis_km": 6861.122355843882,
      "eccentricity": 0.0001271,
      "inclination_deg": 42.9996,
      "raan_deg": 335.659,
      "arg_perigee_deg": 308.8727,
      "mean_anomaly_deg": 51.2011,
      "mean_motion_rev_day": 15.27601287
    },
    {
      "epoch": "2026-04-10T01:02:34.337472Z",
      "apogee_km": 484.4147753491625,
      "perigee_km": 481.74329227423823,
      "latitude_deg": 1.009634441195623e-05,
      "longitude_deg": 116.1926787621929,
      "height_km": 482.99998527100246,
      "semi_major_axis_km": 6861.2160338117,
      "eccentricity": 0.00019468,
      "inclination_deg": 43.0017,
      "raan_deg": 330.1187,
      "arg_perigee_deg": 263.826,
      "mean_anomaly_deg": 96.237,
      "mean_motion_rev_day": 15.27570002
    }
  ]
}